NORAD_CAT_ID,OBJECT_NAME,OBJECT_TYPE,EPOCH,MEAN_MOTION,ECCENTRICITY,INCLINATION,RA_OF_ASC_NODE,ARG_OF_PERICENTER,MEAN_ANOMALY,BSTAR,MEAN_MOTION_DOT,MEAN_MOTION_DDOT,TLE_LINE0,TLE_LINE1,TLE_LINE2,SEMIMAJOR_AXIS,PERIOD,APOGEE,PERIGEE,DECAYED
50178.0,STARLINK-3284,PAYLOAD,2024-08-03 12:48:09,15.08849289,0.0001678,53.2191,346.874,107.7415,252.376,0.0013515,0.00021292,0.0,0 STARLINK-3284,1 50178U 21125Y   24216.53344512  .00021292  00000-0  13515-2 0  9997,2 50178  53.2191 346.8740 0001678 107.7415 252.3760 15.08849289148072,6917.852,95.437,540.878,538.556,0.0
50178.0,STARLINK-3284,PAYLOAD,2024-08-03 14:23:32,15.08852242,0.0001676,53.2188,346.5768,108.0819,252.0355,0.0013718,0.00021619,0.0,0 STARLINK-3284,1 50178U 21125Y   24216.59968450  .00021619  00000-0  13718-2 0  9994,2 50178  53.2188 346.5768 0001676 108.0819 252.0355 15.08852242148615,6917.843,95.437,540.867,538.549,0.0
50178.0,STARLINK-3284,PAYLOAD,2024-08-03 17:34:18,15.08859617,0.0001629,53.2192,345.9811,99.3972,260.7204,0.0015343,0.00024228,0.0,0 STARLINK-3284,1 50178U 21125Y   24216.73216317  .00024228  00000-0  15343-2 0  9993,2 50178  53.2192 345.9811 0001629  99.3972 260.7204 15.08859617148636,6917.82,95.436,540.812,538.559,0.0
50178.0,STARLINK-3284,PAYLOAD,2024-08-04 12:38:56,15.08852061,0.0001789,53.2185,342.4136,106.4182,253.7007,0.00055269,8.522e-05,0.0,0 STARLINK-3284,1 50178U 21125Y   24217.52704046  .00008522  00000-0  55269-3 0  9993,2 50178  53.2185 342.4136 0001789 106.4182 253.7007 15.08852061148224,6917.844,95.437,540.946,538.471,0.0
50178.0,STARLINK-3284,PAYLOAD,2024-08-04 14:14:19,15.08848848,0.0001632,53.2188,342.1155,104.717,255.4003,0.0013802,0.00021751,0.0,0 STARLINK-3284,1 50178U 21125Y   24217.59328156  .00021751  00000-0  13802-2 0  9999,2 50178  53.2188 342.1155 0001632 104.7170 255.4003 15.08848848148762,6917.853,95.437,540.847,538.589,0.0
50178.0,STARLINK-3284,PAYLOAD,2024-08-04 17:25:05,15.08856943,0.0001617,53.2182,341.5207,99.8302,260.2873,0.0021335,0.00033846,0.0,0 STARLINK-3284,1 50178U 21125Y   24217.72576039  .00033846  00000-0  21335-2 0  9997,2 50178  53.2182 341.5207 0001617  99.8302 260.2873 15.08856943148787,6917.829,95.436,540.812,538.575,0.0
50178.0,STARLINK-3284,PAYLOAD,2024-08-05 01:22:00,15.0891598,0.0001903,53.2169,340.0274,68.8447,291.2749,0.0045547,0.00073105,0.0,0 STARLINK-3284,1 50178U 21125Y   24218.05695166  .00073105  00000-0  45547-2 0  9990,2 50178  53.2169 340.0274 0001903  68.8447 291.2749 15.08915980148305,6917.648,95.433,540.83,538.197,0.0
50178.0,STARLINK-3284,PAYLOAD,2024-08-05 12:29:43,15.08834941,0.0001806,53.2174,337.9515,86.2096,273.9102,0.00047508,7.28e-05,0.0,0 STARLINK-3284,1 50178U 21125Y   24218.52063876  .00007280  00000-0  47508-3 0  9990,2 50178  53.2174 337.9515 0001806  86.2096 273.9102 15.08834941148374,6917.896,95.438,541.01,538.511,0.0
50178.0,STARLINK-3284,PAYLOAD,2024-08-05 15:40:29,15.08838174,0.0001655,53.2174,337.3561,82.4338,277.6842,0.00030511,4.571e-05,0.0,0 STARLINK-3284,1 50178U 21125Y   24218.65311831  .00004571  00000-0  30511-3 0  9997,2 50178  53.2174 337.3561 0001655  82.4338 277.6842 15.08838174148923,6917.886,95.438,540.896,538.606,0.0
50178.0,STARLINK-3284,PAYLOAD,2024-08-06 13:55:54,15.08830205,0.0001409,53.2163,333.19,95.1902,264.9251,0.00036562,5.534e-05,0.0,0 STARLINK-3284,1 50178U 21125Y   24219.58048702  .00005534  00000-0  36562-3 0  9996,2 50178  53.2163 333.1900 0001409  95.1902 264.9251 15.08830205148534,6917.91,95.438,540.75,538.801,0.0
50178.0,STARLINK-3284,PAYLOAD,2024-08-07 12:11:18,15.08842644,0.0001369,53.2163,329.0271,92.6485,267.4664,0.00056328,8.689e-05,0.0,0 STARLINK-3284,1 50178U 21125Y   24220.50784997  .00008689  00000-0  56328-3 0  9999,2 50178  53.2163 329.0271 0001369  92.6485 267.4664 15.08842644149203,6917.872,95.437,540.684,538.79,0.0
50178.0,STARLINK-3284,PAYLOAD,2024-08-08 13:37:28,15.08849181,0.0001223,53.2167,324.2693,85.5725,274.5407,0.00034802,5.257e-05,0.0,0 STARLINK-3284,1 50178U 21125Y   24221.56768718  .00005257  00000-0  34802-3 0  9990,2 50178  53.2167 324.2693 0001223  85.5725 274.5407 15.08849181149363,6917.852,95.437,540.563,538.871,0.0
50178.0,STARLINK-3284,PAYLOAD,2024-08-09 13:28:15,15.08843242,0.0001213,53.2176,319.8138,89.8763,270.2368,7.2362e-05,8.64e-06,0.0,0 STARLINK-3284,1 50178U 21125Y   24222.56128682  .00000864  00000-0  72362-4 0  9994,2 50178  53.2176 319.8138 0001213  89.8763 270.2368 15.08843242148983,6917.87,95.437,540.575,538.896,0.0
50178.0,STARLINK-3284,PAYLOAD,2024-08-09 16:39:01,15.08845421,0.0001174,53.2171,319.2145,75.7579,284.3544,0.00010301,1.352e-05,0.0,0 STARLINK-3284,1 50178U 21125Y   24222.69376577  .00001352  00000-0  10301-3 0  9993,2 50178  53.2171 319.2145 0001174  75.7579 284.3544 15.08845421149530,6917.864,95.437,540.541,538.917,0.0
50178.0,STARLINK-3284,PAYLOAD,2024-08-10 13:19:02,15.08837082,0.0001234,53.2172,315.3487,104.6408,255.4721,-2.1161e-05,-6.25e-06,0.0,0 STARLINK-3284,1 50178U 21125Y   24223.55488795 -.00000625  00000-0 -21161-4 0  9996,2 50178  53.2172 315.3487 0001234 104.6408 255.4721 15.08837082149661,6917.889,95.438,540.608,538.901,0.0
50178.0,STARLINK-3284,PAYLOAD,2024-08-10 22:51:19,15.08861402,9.9e-05,53.2171,313.5649,66.5726,293.537,0.0003322,5.006e-05,0.0,0 STARLINK-3284,1 50178U 21125Y   24223.95231288  .00005006  00000-0  33220-3 0  9997,2 50178  53.2171 313.5649 0000990  66.5726 293.5370 15.08861402149191,6917.815,95.436,540.365,538.995,0.0
50178.0,STARLINK-3284,PAYLOAD,2024-08-11 13:09:49,15.08830643,0.0001796,53.2166,310.9005,123.8863,236.23,-0.00012109,-2.214e-05,0.0,0 STARLINK-3284,1 50178U 21125Y   24224.54849288 -.00002214  00000-0 -12109-3 0  9991,2 50178  53.2166 310.9005 0001796 123.8863 236.2300 15.08830643149286,6917.909,95.438,541.016,538.532,0.0
50178.0,STARLINK-3284,PAYLOAD,2024-08-11 16:20:35,15.08849327,0.0001429,53.2165,310.2939,73.7994,286.3155,0.00017939,2.569e-05,0.0,0 STARLINK-3284,1 50178U 21125Y   24224.68096372  .00002569  00000-0  17939-3 0  9991,2 50178  53.2165 310.2939 0001429  73.7994 286.3155 15.08849327149301,6917.852,95.437,540.705,538.728,0.0
50178.0,STARLINK-3284,PAYLOAD,2024-08-12 09:49:49,15.08842553,0.0002141,53.217,307.0232,113.2647,246.8571,0.00017011,2.42e-05,0.0,0 STARLINK-3284,1 50178U 21125Y   24225.40960644  .00002420  00000-0  17011-3 0  9991,2 50178  53.2170 307.0232 0002141 113.2647 246.8571 15.08842553149413,6917.873,95.437,541.219,538.256,0.0
50178.0,STARLINK-3284,PAYLOAD,2024-08-12 14:35:58,15.08867365,0.0001526,53.2169,306.1306,101.2801,258.8363,0.00051837,7.978e-05,0.0,0 STARLINK-3284,1 50178U 21125Y   24225.60831302  .00007978  00000-0  51837-3 0  9998,2 50178  53.2169 306.1306 0001526 101.2801 258.8363 15.08867365149979,6917.797,95.436,540.717,538.606,0.0
50178.0,STARLINK-3284,PAYLOAD,2024-08-12 22:32:52,15.08903713,0.000267,53.2173,304.6459,68.638,291.4897,0.00112,0.00017613,0.0,0 STARLINK-3284,1 50178U 21125Y   24225.93949698  .00017613  00000-0  11200-2 0  9998,2 50178  53.2173 304.6459 0002670  68.6380 291.4897 15.08903713150026,6917.686,95.434,541.398,537.704,0.0
50178.0,STARLINK-3284,PAYLOAD,2024-08-13 11:15:59,15.08821477,0.0001603,53.2168,302.2669,75.5688,284.5482,-0.00041357,-6.861e-05,0.0,0 STARLINK-3284,1 50178U 21125Y   24226.46944255 -.00006861  00000-0 -41357-3 0  9993,2 50178  53.2168 302.2669 0001603  75.5688 284.5482 15.08821477149577,6917.937,95.439,540.911,538.693,0.0
50178.0,STARLINK-3284,PAYLOAD,2024-08-13 22:23:43,15.08801239,0.0001545,53.2161,300.1858,81.258,278.8587,-0.00075067,-0.00012202,0.0,0 STARLINK-3284,1 50178U 21125Y   24226.93313845 -.00012202  00000-0 -75067-3 0  9991,2 50178  53.2161 300.1858 0001545  81.2580 278.8587 15.08801239150171,6917.999,95.44,540.933,538.795,0.0
50178.0,STARLINK-3284,PAYLOAD,2024-08-14 04:45:16,15.08805038,0.0001626,53.2203,298.9996,68.2571,291.8594,-0.00055136,-9.044e-05,0.0,0 STARLINK-3284,1 50178U 21125Y   24227.19810341 -.00009044  00000-0 -55136-3 0  9998,2 50178  53.2203 298.9996 0001626  68.2571 291.8594 15.08805038149688,6917.987,95.44,540.977,538.727,0.0
50178.0,STARLINK-3284,PAYLOAD,2024-08-14 11:06:48,15.08813428,0.0001302,53.2152,297.8075,73.3422,286.7713,-0.00013379,-2.415e-05,0.0,0 STARLINK-3284,1 50178U 21125Y   24227.46306466 -.00002415  00000-0 -13379-3 0  9994,2 50178  53.2152 297.8075 0001302  73.3422 286.7713 15.08813428149723,6917.962,95.439,540.727,538.926,0.0
50178.0,STARLINK-3284,PAYLOAD,2024-08-14 22:14:31,15.08823904,0.0001785,53.2157,295.7251,71.8674,288.2512,0.00039383,5.983e-05,0.0,0 STARLINK-3284,1 50178U 21125Y   24227.92675099  .00005983  00000-0  39383-3 0  9990,2 50178  53.2157 295.7251 0001785  71.8674 288.2512 15.08823904150320,6917.93,95.439,541.029,538.56,0.0
50178.0,STARLINK-3284,PAYLOAD,2024-08-15 10:57:36,15.08850969,0.0001407,53.2155,293.3455,74.317,285.7977,0.0012307,0.00019359,0.0,0 STARLINK-3284,1 50178U 21125Y   24228.45667308  .00019359  00000-0  12307-2 0  9991,2 50178  53.2155 293.3455 0001407  74.3170 285.7977 15.08850969150405,6917.847,95.437,540.685,538.739,0.0
50178.0,STARLINK-3284,PAYLOAD,2024-08-16 09:12:59,15.08867423,0.0001455,53.2157,289.1818,76.1113,284.0041,0.00073874,0.00011497,0.0,0 STARLINK-3284,1 50178U 21125Y   24229.38402202  .00011497  00000-0  73874-3 0  9996,2 50178  53.2157 289.1818 0001455  76.1113 284.0041 15.08867423150017,6917.797,95.436,540.668,538.655,0.0
50178.0,STARLINK-3284,PAYLOAD,2024-08-17 07:28:22,15.08857336,0.0002013,53.2162,285.0182,117.6587,242.4609,0.00052805,8.13e-05,0.0,0 STARLINK-3284,1 50178U 21125Y   24230.31137377  .00008130  00000-0  52805-3 0  9990,2 50178  53.2162 285.0182 0002013 117.6587 242.4609 15.08857336150154,6917.827,95.436,541.085,538.3,0.0
50178.0,STARLINK-3284,PAYLOAD,2024-08-18 02:33:00,15.08850911,0.000182,53.2167,281.456,118.3896,241.7279,0.00011909,1.608e-05,0.0,0 STARLINK-3284,1 50178U 21125Y   24231.10625055  .00001608  00000-0  11909-3 0  9996,2 50178  53.2167 281.4560 0001820 118.3896 241.7279 15.08850911150275,6917.847,95.437,540.971,538.453,0.0
